{
  "type": "FeatureCollection",
  "features": [
    {
      "type": "Feature",
      "properties": {
        "norad_id": 43647,
        "name": "BEIDOU-3 M16 (C35)",
        "group": "gnss",
        "lat": 49.499861568341544,
        "lon": 69.09444328579316,
        "alt_km": 21522.472758113905,
        "timestamp": "2025-12-12T20:43:07.278778+00:00",
        "meta_object_name": "BEIDOU-3 M16 (C35)",
        "meta_object_id": "2018-078A",
        "meta_epoch": "2025-12-12T03:52:56.248896",
        "meta_mean_motion": 1.86232291,
        "meta_eccentricity": 0.00071745,
        "meta_inclination": 54.2625,
        "meta_ra_of_asc_node": 306.5413,
        "meta_arg_of_pericenter": 19.216,
        "meta_mean_anomaly": 340.802,
        "meta_ephemeris_type": 0,
        "meta_classification_type": "U",
        "meta_norad_cat_id": 43647,
        "meta_element_set_no": 999,
        "meta_rev_at_epoch": 4867,
        "meta_bstar": 0,
        "meta_mean_motion_dot": -9.2e-07,
        "meta_mean_motion_ddot": 0,
        "tle_line1": "1 43647U 18078A   25346.16176214 -.00000092  00000+0  00000+0 0  9996",
        "tle_line2": "2 43647  54.2625 306.5413 0007174  19.2160 340.8020  1.86232291 48676"
      },
      "geometry": {
        "type": "Point",
        "coordinates": [
          69.09444328579316,
          49.499861568341544
        ]
      }
    },
    {
      "type": "Feature",
      "properties": {
        "norad_id": 43648,
        "name": "BEIDOU-3 M15 (C34)",
        "group": "gnss",
        "lat": 19.052367652886296,
        "lon": -39.10945833875085,
        "alt_km": 21515.653647101135,
        "timestamp": "2025-12-12T20:43:07.278803+00:00",
        "meta_object_name": "BEIDOU-3 M15 (C34)",
        "meta_object_id": "2018-078B",
        "meta_epoch": "2025-12-09T14:32:59.144640",
        "meta_mean_motion": 1.86231871,
        "meta_eccentricity": 0.0003622,
        "meta_inclination": 54.2606,
        "meta_ra_of_asc_node": 306.6314,
        "meta_arg_of_pericenter": 18.0065,
        "meta_mean_anomaly": 341.9965,
        "meta_ephemeris_type": 0,
        "meta_classification_type": "U",
        "meta_norad_cat_id": 43648,
        "meta_element_set_no": 999,
        "meta_rev_at_epoch": 4864,
        "meta_bstar": 0,
        "meta_mean_motion_dot": -7.7e-07,
        "meta_mean_motion_ddot": 0,
        "tle_line1": "1 43648U 18078B   25343.60624010 -.00000077  00000+0  00000+0 0  9998",
        "tle_line2": "2 43648  54.2606 306.6314 0003622  18.0065 341.9965  1.86231871 48642"
      },
      "geometry": {
        "type": "Point",
        "coordinates": [
          -39.10945833875085,
          19.052367652886296
        ]
      }
    },
    {
      "type": "Feature",
      "properties": {
        "norad_id": 43683,
        "name": "BEIDOU-3 G1 (C59)",
        "group": "gnss",
        "lat": 2.441355467697972,
        "lon": 172.63127698837772,
        "alt_km": 35778.814846584995,
        "timestamp": "2025-12-12T20:43:07.278815+00:00",
        "meta_object_name": "BEIDOU-3 G1 (C59)",
        "meta_object_id": "2018-085A",
        "meta_epoch": "2025-12-12T07:17:54.181248",
        "meta_mean_motion": 1.00270805,
        "meta_eccentricity": 0.0001747,
        "meta_inclination": 2.6069,
        "meta_ra_of_asc_node": 102.988,
        "meta_arg_of_pericenter": 63.016,
        "meta_mean_anomaly": 164.7936,
        "meta_ephemeris_type": 0,
        "meta_classification_type": "U",
        "meta_norad_cat_id": 43683,
        "meta_element_set_no": 999,
        "meta_rev_at_epoch": 2618,
        "meta_bstar": 0,
        "meta_mean_motion_dot": -2.67e-06,
        "meta_mean_motion_ddot": 0,
        "tle_line1": "1 43683U 18085A   25346.30409932 -.00000267  00000+0  00000+0 0  9990",
        "tle_line2": "2 43683   2.6069 102.9880 0001747  63.0160 164.7936  1.00270805 26188"
      },
      "geometry": {
        "type": "Point",
        "coordinates": [
          172.63127698837772,
          2.441355467697972
        ]
      }
    },
    {
      "type": "Feature",
      "properties": {
        "norad_id": 43687,
        "name": "COSMOS 2529 (757)",
        "group": "gnss",
        "lat": -15.234938583121524,
        "lon": -168.6513192815511,
        "alt_km": 19131.942011698673,
        "timestamp": "2025-12-12T20:43:07.278827+00:00",
        "meta_object_name": "COSMOS 2529 (757)",
        "meta_object_id": "2018-086A",
        "meta_epoch": "2025-12-11T22:43:29.447040",
        "meta_mean_motion": 2.13101914,
        "meta_eccentricity": 0.00072711,
        "meta_inclination": 64.292,
        "meta_ra_of_asc_node": 198.9152,
        "meta_arg_of_pericenter": 254.2987,
        "meta_mean_anomaly": 105.6915,
        "meta_ephemeris_type": 0,
        "meta_classification_type": "U",
        "meta_norad_cat_id": 43687,
        "meta_element_set_no": 999,
        "meta_rev_at_epoch": 5529,
        "meta_bstar": 0,
        "meta_mean_motion_dot": 6.1e-07,
        "meta_mean_motion_ddot": 0,
        "tle_line1": "1 43687U 18086A   25345.94686860  .00000061  00000+0  00000+0 0  9992",
        "tle_line2": "2 43687  64.2920 198.9152 0007271 254.2987 105.6915  2.13101914 55292"
      },
      "geometry": {
        "type": "Point",
        "coordinates": [
          -168.6513192815511,
          -15.234938583121524
        ]
      }
    },
    {
      "type": "Feature",
      "properties": {
        "norad_id": 43706,
        "name": "BEIDOU-3 M17 (C36)",
        "group": "gnss",
        "lat": -53.508577283359195,
        "lon": 111.0130190392018,
        "alt_km": 21519.06033804399,
        "timestamp": "2025-12-12T20:43:07.278840+00:00",
        "meta_object_name": "BEIDOU-3 M17 (C36)",
        "meta_object_id": "2018-093A",
        "meta_epoch": "2025-12-12T04:17:11.485824",
        "meta_mean_motion": 1.86228421,
        "meta_eccentricity": 0.00062217,
        "meta_inclination": 54.1726,
        "meta_ra_of_asc_node": 188.6407,
        "meta_arg_of_pericenter": 307.45,
        "meta_mean_anomaly": 230.9206,
        "meta_ephemeris_type": 0,
        "meta_classification_type": "U",
        "meta_norad_cat_id": 43706,
        "meta_element_set_no": 999,
        "meta_rev_at_epoch": 4805,
        "meta_bstar": 0,
        "meta_mean_motion_dot": 7.8e-07,
        "meta_mean_motion_ddot": 0,
        "tle_line1": "1 43706U 18093A   25346.17860516  .00000078  00000+0  00000+0 0  9998",
        "tle_line2": "2 43706  54.1726 188.6407 0006221 307.4500 230.9206  1.86228421 48054"
      },
      "geometry": {
        "type": "Point",
        "coordinates": [
          111.0130190392018,
          -53.508577283359195
        ]
      }
    },
    {
      "type": "Feature",
      "properties": {
        "norad_id": 43707,
        "name": "BEIDOU-3 M18 (C37)",
        "group": "gnss",
        "lat": 8.298064054831329,
        "lon": -165.33598744257588,
        "alt_km": 21510.858143554542,
        "timestamp": "2025-12-12T20:43:07.278854+00:00",
        "meta_object_name": "BEIDOU-3 M18 (C37)",
        "meta_object_id": "2018-093B",
        "meta_epoch": "2025-12-11T18:34:39.857952",
        "meta_mean_motion": 1.8622663,
        "meta_eccentricity": 0.00063207,
        "meta_inclination": 54.1731,
        "meta_ra_of_asc_node": 188.6462,
        "meta_arg_of_pericenter": 352.4286,
        "meta_mean_anomaly": 7.6208,
        "meta_ephemeris_type": 0,
        "meta_classification_type": "U",
        "meta_norad_cat_id": 43707,
        "meta_element_set_no": 999,
        "meta_rev_at_epoch": 4804,
        "meta_bstar": 0,
        "meta_mean_motion_dot": 7.2e-07,
        "meta_mean_motion_ddot": 0,
        "tle_line1": "1 43707U 18093B   25345.77407243  .00000072  00000+0  00000+0 0  9992",
        "tle_line2": "2 43707  54.1731 188.6462 0006320 352.4286   7.6208  1.86226630 48043"
      },
      "geometry": {
        "type": "Point",
        "coordinates": [
          -165.33598744257588,
          8.298064054831329
        ]
      }
    },
    {
      "type": "Feature",
      "properties": {
        "norad_id": 43873,
        "name": "GPS BIII-1  (PRN 04)",
        "group": "gnss",
        "lat": -41.16230911718714,
        "lon": -43.656423581973456,
        "alt_km": 20109.75862135867,
        "timestamp": "2025-12-12T20:43:07.278867+00:00",
        "meta_object_name": "GPS BIII-1  (PRN 04)",
        "meta_object_id": "2018-109A",
        "meta_epoch": "2025-12-11T18:46:12.593280",
        "meta_mean_motion": 2.00553575,
        "meta_eccentricity": 0.00372966,
        "meta_inclination": 55.5668,
        "meta_ra_of_asc_node": 99.5845,
        "meta_arg_of_pericenter": 194.9269,
        "meta_mean_anomaly": 337.0503,
        "meta_ephemeris_type": 0,
        "meta_classification_type": "U",
        "meta_norad_cat_id": 43873,
        "meta_element_set_no": 999,
        "meta_rev_at_epoch": 5131,
        "meta_bstar": 0,
        "meta_mean_motion_dot": 2e-08,
        "meta_mean_motion_ddot": 0,
        "tle_line1": "1 43873U 18109A   25345.78209020  .00000002  00000+0  00000+0 0  9991",
        "tle_line2": "2 43873  55.5668  99.5845 0037296 194.9269 337.0503  2.00553575 51312"
      },
      "geometry": {
        "type": "Point",
        "coordinates": [
          -43.656423581973456,
          -41.16230911718714
        ]
      }
    }
  ]
}